FLOCK 4G-26             
1 62633U 25009AA  26068.80489479  .00011283  00000+0  42469-3 0  9999
2 62633  97.4054 151.3913 0001988 299.1273  60.9767 15.27281631 63733
STARLINK-33942          
1 63974U 25099Y   26068.29327960  .00029327  00000+0  10712-2 0  9999
2 63974  42.9980 175.1620 0001354 257.2430 102.8270 15.27573374 47310
